{"type": "FeatureCollection", "features": [ {"type": "Feature", "properties": {"norad_id": 67020, "name": "STARLINK-36172", "group": "last-30-days", "lat": 52.19442370908003, "lon": -39.78056628969306, "alt_km": 317.97927341488685, "timestamp": "2025-12-23T14:49:07.969298+00:00", "meta": {"OBJECT_NAME": "STARLINK-36172", "OBJECT_ID": "2025-293T", "EPOCH": "2025-12-23T06:00:00.999648", "MEAN_MOTION": 15.84498594, "ECCENTRICITY": 0.00037385, "INCLINATION": 69.9927, "RA_OF_ASC_NODE": 293.2612, "ARG_OF_PERICENTER": 272.4089, "MEAN_ANOMALY": 210.4091, "EPHEMERIS_TYPE": 0, "CLASSIFICATION_TYPE": "U", "NORAD_CAT_ID": 67020, "ELEMENT_SET_NO": 999, "REV_AT_EPOCH": 191, "BSTAR": -0.0078960883, "MEAN_MOTION_DOT": -0.01591315, "MEAN_MOTION_DDOT": 0}, "tle": {"line1": "1 67020U 25293T   25357.25001157 -.01591315  00000+0 -78961-2 0  9998", "line2": "2 67020  69.9927 293.2612 0003738 272.4089 210.4091 15.84498594  1912"}}, "geometry": {"type": "Point", "coordinates": [-39.78056628969306, 52.19442370908003]}}, {"type": "Feature", "properties": {"norad_id": 67021, "name": "STARLINK-36184", "group": "last-30-days", "lat": 54.32890401247882, "lon": -37.290406707624655, "alt_km": 317.8327833238973, "timestamp": "2025-12-23T14:49:07.969318+00:00", "meta": {"OBJECT_NAME": "STARLINK-36184", "OBJECT_ID": "2025-293U", "EPOCH": "2025-12-23T06:00:00.999648", "MEAN_MOTION": 15.84474344, "ECCENTRICITY": 0.0003699, "INCLINATION": 69.9928, "RA_OF_ASC_NODE": 293.2578, "ARG_OF_PERICENTER": 270.7902, "MEAN_ANOMALY": 214.6606, "EPHEMERIS_TYPE": 0, "CLASSIFICATION_TYPE": "U", "NORAD_CAT_ID": 67021, "ELEMENT_SET_NO": 999, "REV_AT_EPOCH": 191, "BSTAR": -0.0078929154, "MEAN_MOTION_DOT": -0.01589082, "MEAN_MOTION_DDOT": 0}, "tle": {"line1": "1 67021U 25293U   25357.25001157 -.01589082  00000+0 -78929-2 0  9991", "line2": "2 67021  69.9928 293.2578 0003699 270.7902 214.6606 15.84474344  1911"}}, "geometry": {"type": "Point", "coordinates": [-37.290406707624655, 54.32890401247882]}}, {"type": "Feature", "properties": {"norad_id": 67022, "name": "STARLINK-36209", "group": "last-30-days", "lat": 56.69964803902772, "lon": -34.108728493715745, "alt_km": 317.643285758455, "timestamp": "2025-12-23T14:49:07.969344+00:00", "meta": {"OBJECT_NAME": "STARLINK-36209", "OBJECT_ID": "2025-293V", "EPOCH": "2025-12-23T06:00:00.999648", "MEAN_MOTION": 15.84437864, "ECCENTRICITY": 0.00037629, "INCLINATION": 69.9926, "RA_OF_ASC_NODE": 293.2544, "ARG_OF_PERICENTER": 274.5902, "MEAN_ANOMALY": 213.8798, "EPHEMERIS_TYPE": 0, "CLASSIFICATION_TYPE": "U", "NORAD_CAT_ID": 67022, "ELEMENT_SET_NO": 999, "REV_AT_EPOCH": 191, "BSTAR": -0.0078990938, "MEAN_MOTION_DOT": -0.01587793, "MEAN_MOTION_DDOT": 0}, "tle": {"line1": "1 67022U 25293V   25357.25001157 -.01587793  00000+0 -78991-2 0  9998", "line2": "2 67022  69.9926 293.2544 0003762 274.5902 213.8798 15.84437864  1915"}}, "geometry": {"type": "Point", "coordinates": [-34.108728493715745, 56.69964803902772]}}, {"type": "Feature", "properties": {"norad_id": 67023, "name": "STARLINK-36191", "group": "last-30-days", "lat": 58.62875270226869, "lon": -31.102678542144663, "alt_km": 317.53486685908956, "timestamp": "2025-12-23T14:49:07.969356+00:00", "meta": {"OBJECT_NAME": "STARLINK-36191", "OBJECT_ID": "2025-293W", "EPOCH": "2025-12-23T06:00:00.999648", "MEAN_MOTION": 15.84421902, "ECCENTRICITY": 0.00037628, "INCLINATION": 69.9925, "RA_OF_ASC_NODE": 293.2508, "ARG_OF_PERICENTER": 273.861, "MEAN_ANOMALY": 217.1427, "EPHEMERIS_TYPE": 0, "CLASSIFICATION_TYPE": "U", "NORAD_CAT_ID": 67023, "ELEMENT_SET_NO": 999, "REV_AT_EPOCH": 180, "BSTAR": -0.0079323506, "MEAN_MOTION_DOT": -0.01592577, "MEAN_MOTION_DDOT": 0}, "tle": {"line1": "1 67023U 25293W   25357.25001157 -.01592577  00000+0 -79324-2 0  9996", "line2": "2 67023  69.9925 293.2508 0003762 273.8610 217.1427 15.84421902  1803"}}, "geometry": {"type": "Point", "coordinates": [-31.102678542144663, 58.62875270226869]}}, {"type": "Feature", "properties": {"norad_id": 67024, "name": "STARLINK-36192", "group": "last-30-days", "lat": 60.67697729750553, "lon": -27.362199532796225, "alt_km": 317.4437628737851, "timestamp": "2025-12-23T14:49:07.969366+00:00", "meta": {"OBJECT_NAME": "STARLINK-36192", "OBJECT_ID": "2025-293X", "EPOCH": "2025-12-23T06:00:00.999648", "MEAN_MOTION": 15.84395404, "ECCENTRICITY": 0.00037651, "INCLINATION": 69.9928, "RA_OF_ASC_NODE": 293.2477, "ARG_OF_PERICENTER": 273.1498, "MEAN_ANOMALY": 220.6741, "EPHEMERIS_TYPE": 0, "CLASSIFICATION_TYPE": "U", "NORAD_CAT_ID": 67024, "ELEMENT_SET_NO": 999, "REV_AT_EPOCH": 191, "BSTAR": -0.0079493938, "MEAN_MOTION_DOT": -0.01593794, "MEAN_MOTION_DDOT": 0}, "tle": {"line1": "1 67024U 25293X   25357.25001157 -.01593794  00000+0 -79494-2 0  9997", "line2": "2 67024  69.9928 293.2477 0003765 273.1498 220.6741 15.84395404  1919"}}, "geometry": {"type": "Point", "coordinates": [-27.362199532796225, 60.67697729750553]}}, {"type": "Feature", "properties": {"norad_id": 67025, "name": "STARLINK-36178", "group": "last-30-days", "lat": 62.30743196669797, "lon": -23.840717510634374, "alt_km": 317.2172577766687, "timestamp": "2025-12-23T14:49:07.969377+00:00", "meta": {"OBJECT_NAME": "STARLINK-36178", "OBJECT_ID": "2025-293Y", "EPOCH": "2025-12-23T06:00:00.999648", "MEAN_MOTION": 15.84383647, "ECCENTRICITY": 0.00036039, "INCLINATION": 69.9927, "RA_OF_ASC_NODE": 293.2447, "ARG_OF_PERICENTER": 274.4558, "MEAN_ANOMALY": 221.7246, "EPHEMERIS_TYPE": 0, "CLASSIFICATION_TYPE": "U", "NORAD_CAT_ID": 67025, "ELEMENT_SET_NO": 999, "REV_AT_EPOCH": 191, "BSTAR": -0.0079708948, "MEAN_MOTION_DOT": -0.01596601, "MEAN_MOTION_DDOT": 0}, "tle": {"line1": "1 67025U 25293Y   25357.25001157 -.01596601  00000+0 -79709-2 0  9997", "line2": "2 67025  69.9927 293.2447 0003603 274.4558 221.7246 15.84383647  1916"}}, "geometry": {"type": "Point", "coordinates": [-23.840717510634374, 62.30743196669797]}}, {"type": "Feature", "properties": {"norad_id": 67026, "name": "STARLINK-36176", "group": "last-30-days", "lat": 65.47668480482048, "lon": -14.80820055795946, "alt_km": 317.10284429344756, "timestamp": "2025-12-23T14:49:07.969387+00:00", "meta": {"OBJECT_NAME": "STARLINK-36176", "OBJECT_ID": "2025-293Z", "EPOCH": "2025-12-23T06:00:00.999648", "MEAN_MOTION": 15.84344253, "ECCENTRICITY": 0.00036607, "INCLINATION": 69.9925, "RA_OF_ASC_NODE": 293.2386, "ARG_OF_PERICENTER": 275.3417, "MEAN_ANOMALY": 225.9621, "EPHEMERIS_TYPE": 0, "CLASSIFICATION_TYPE": "U", "NORAD_CAT_ID": 67026, "ELEMENT_SET_NO": 999, "REV_AT_EPOCH": 191, "BSTAR": -0.0079896287, "MEAN_MOTION_DOT": -0.01597294, "MEAN_MOTION_DDOT": 0}, "tle": {"line1": "1 67026U 25293Z   25357.25001157 -.01597294  00000+0 -79896-2 0  9994", "line2": "2 67026  69.9925 293.2386 0003660 275.3417 225.9621 15.84344253  1917"}}, "geometry": {"type": "Point", "coordinates": [-14.80820055795946, 65.47668480482048]}}, {"type": "Feature", "properties": {"norad_id": 67027, "name": "STARLINK-36171", "group": "last-30-days", "lat": 64.16279636808227, "lon": -19.002631986145047, "alt_km": 317.2018310938947, "timestamp": "2025-12-23T14:49:07.969400+00:00", "meta": {"OBJECT_NAME": "STARLINK-36171", "OBJECT_ID": "2025-293AA", "EPOCH": "2025-12-23T06:00:00.999648", "MEAN_MOTION": 15.8435228, "ECCENTRICITY": 0.00036807, "INCLINATION": 69.9923, "RA_OF_ASC_NODE": 293.2414, "ARG_OF_PERICENTER": 274.6451, "MEAN_ANOMALY": 224.4344, "EPHEMERIS_TYPE": 0, "CLASSIFICATION_TYPE": "U", "NORAD_CAT_ID": 67027, "ELEMENT_SET_NO": 999, "REV_AT_EPOCH": 191, "BSTAR": -0.0079828981, "MEAN_MOTION_DOT": -0.01596678, "MEAN_MOTION_DDOT": 0}, "tle": {"line1": "1 67027U 25293AA  25357.25001157 -.01596678  00000+0 -79829-2 0  9996", "line2": "2 67027  69.9923 293.2414 0003680 274.6451 224.4344 15.84352280  1915"}}, "geometry": {"type": "Point", "coordinates": [-19.002631986145047, 64.16279636808227]}}, {"type": "Feature", "properties": {"norad_id": 67028, "name": "STARLINK-36132", "group": "last-30-days", "lat": 67.98777812115259, "lon": -3.4886081829981195, "alt_km": 317.05884386403613, "timestamp": "2025-12-23T14:49:07.969414+00:00", "meta": {"OBJECT_NAME": "STARLINK-36132", "OBJECT_ID": "2025-293AB", "EPOCH": "2025-12-23T06:00:00.999648", "MEAN_MOTION": 15.84299781, "ECCENTRICITY": 0.00036938, "INCLINATION": 69.9927, "RA_OF_ASC_NODE": 293.2326, "ARG_OF_PERICENTER": 276.4949, "MEAN_ANOMALY": 229.979, "EPHEMERIS_TYPE": 0, "CLASSIFICATION_TYPE": "U", "NORAD_CAT_ID": 67028, "ELEMENT_SET_NO": 999, "REV_AT_EPOCH": 191, "BSTAR": -0.0079934593, "MEAN_MOTION_DOT": -0.01595007, "MEAN_MOTION_DDOT": 0}, "tle": {"line1": "1 67028U 25293AB  25357.25001157 -.01595007  00000+0 -79935-2 0  9990", "line2": "2 67028  69.9927 293.2326 0003693 276.4949 229.9790 15.84299781  1919"}}, "geometry": {"type": "Point", "coordinates": [-3.4886081829981195, 67.98777812115259]}}, {"type": "Feature", "properties": {"norad_id": 67029, "name": "STARLINK-36190", "group": "last-30-days", "lat": 66.71700058769358, "lon": -9.955831544593133, "alt_km": 317.0544682251002, "timestamp": "2025-12-23T14:49:07.969437+00:00", "meta": {"OBJECT_NAME": "STARLINK-36190", "OBJECT_ID": "2025-293AC", "EPOCH": "2025-12-23T06:00:00.999648", "MEAN_MOTION": 15.84330879, "ECCENTRICITY": 0.00036371, "INCLINATION": 69.9929, "RA_OF_ASC_NODE": 293.2362, "ARG_OF_PERICENTER": 274.0194, "MEAN_ANOMALY": 229.6251, "EPHEMERIS_TYPE": 0, "CLASSIFICATION_TYPE": "U", "NORAD_CAT_ID": 67029, "ELEMENT_SET_NO": 999, "REV_AT_EPOCH": 191, "BSTAR": -0.0079964213, "MEAN_MOTION_DOT": -0.01597556, "MEAN_MOTION_DDOT": 0}, "tle": {"line1": "1 67029U 25293AC  25357.25001157 -.01597556  00000+0 -79964-2 0  9994", "line2": "2 67029  69.9929 293.2362 0003637 274.0194 229.6251 15.84330879  1919"}}, "geometry": {"type": "Point", "coordinates": [-9.955831544593133, 66.71700058769358]}}]}